SatCatId,ObjectName,LaunchYear,OrbitalPeriod,LaunchMass,StatusCode,Inclination,Status,UcsData,OrbitClassEstimated,LaunchSiteCountry,Owner,UseType,Purpose,LaunchVehicleClass,TLE1,TLE2,MeanMotion,Eccentricity,OrbitClass
44475,EDRS-C,2019,1436.14,3186.0,+,0.08,Active,1,GSO,French Guiana,ESA,Commercial,Communications,Ariane,1 44475U 19049A   25083.40750666  .00000154  00000+0  00000+0 0  9997,2 44475   0.0781 250.7903 0000788 109.6118 359.5882  1.00269887 20695,1.00269887,7.88e-05,GEO
44476,INTELSAT 39 (IS-39),2019,1436.13,6600.0,+,0.02,Active,1,GSO,French Guiana,INTELSAT,Commercial,Communications,Ariane,1 44476U 19049B   25082.97976360  .00000034  00000+0  00000+0 0  9997,2 44476   0.0228 176.5292 0000949 318.3670 101.4644  1.00269291 20610,1.00269291,9.49e-05,GEO
44479,AMOS-17,2019,1436.04,6500.0,+,0.03,Active,1,GSO,USA,Israel,Commercial/Military,Communications,Falcon,1 44479U 19050A   25083.37544689  .00000109  00000+0  00000+0 0  9995,2 44479   0.0326 316.1488 0001962  63.6256 314.4732  1.00271562 20671,1.00271562,0.0001962,GEO
44481,AEHF-5 (USA 292),2019,1436.14,6169.0,+,2.15,Active,1,GSO,USA,USA,Military,Communications,Atlas,1 44481U 19051A   25083.61900508 -.00000233  00000+0  00000+0 0  9991,2 44481   2.1451 313.1964 0058616  14.4096 167.5357  1.00268399 20759,1.00268399,0.0058616,GSO
44495,BRO-1,2019,93.62,8.0,+,45.01,Active,1,LEO,New Zealand,France,Commercial,Earth Observation,Electron,1 44495U 19054A   25083.56608609  .00040113  00000+0  10438-2 0  9999,2 44495  45.0099 328.3692 0002893 211.2973 148.7742 15.38301815309746,15.38301815,0.0002893,LEO
44497,PEARL WHITE 1,2019,91.62,8.0,+,45.0,Active,1,LEO,New Zealand,USA,Commercial,Technology Development,Electron,1 44497U 19054C   25083.59065919  .00270100  00000+0  18915-2 0  9994,2 44497  44.9962 271.5159 0013501 260.3797  99.5578 15.72585312310330,15.72585312,0.0013501,LEO
44499,GLOBAL-4,2019,93.44,56.0,+,45.01,Active,1,LEO,New Zealand,USA,Commercial,Earth Observation,Electron,1 44499U 19054E   25081.71639914  .00004139  00000+0  10589-3 0  9997,2 44499  45.0113 256.8838 0010900 268.7311  91.2328 15.41124102310419,15.41124102,0.00109,LEO
44506,NAVSTAR 78 (USA 293),2019,717.99,2300.0,+,55.8,Active,1,MEO,USA,USA,Commercial/Military,Navigation (Global or Regional Positioning),Delta,1 44506U 19056A   25083.08338578 -.00000077  00000+0  00000+0 0  9993,2 44506  55.8030 349.0066 0049322 193.7398 274.7982  2.00560950 41045,2.0056095,0.0049322,MEO
44517,COSMOS 2540,2019,103.9,900.0,+,99.23,Active,1,LEO,Russia,Russia/USSR,Military,Earth Observation,Rokot,1 44517U 19057A   25083.56979768  .00000030  00000+0  64262-4 0  9994,2 44517  99.2319  97.4421 0013598 276.7174  83.2435 13.85950897281598,13.85950897,0.0013598,LEO
44520,KX-09,2019,96.33,-1.0,+,97.79,Active,1,LEO,PRC,China,Government,Space Science,Kuaizhou,1 44520U 19058B   25083.59837983  .00004323  00000+0  40091-3 0  9996,2 44520  97.7906  94.6515 0011944  50.4011 309.8262 14.94916182302825,14.94916182,0.0011944,LEO
44528,ZY-1 02D,2019,100.32,2650.0,+,98.37,Active,1,LEO,PRC,China,Government,Earth Observation,Long March,1 44528U 19059A   25083.61117989  .00000740  00000+0  27258-3 0  9994,2 44528  98.3742 154.5173 0002073  56.1348 304.0035 14.35427621289844,14.35427621,0.0002073,LEO
44529,BNU-1 (JINGSHI 1),2019,99.47,16.0,+,98.55,Active,1,LEO,PRC,China,Civil,Earth Observation,Long March,1 44529U 19059B   25083.59689959  .00002285  00000+0  63184-3 0  9997,2 44529  98.5531 200.9632 0012168 295.1825  64.8105 14.47625815291929,14.47625815,0.0012168,LEO
44530,TAURUS-1 (JINNIUZUO 1),2019,98.35,-1.0,+,98.6,Active,0,LEO,PRC,China,Unknown,Unknown,Unknown,1 44530U 19059C   25083.55734260  .00019617  00000+0  37292-2 0  9998,2 44530  98.5952 219.4203 0009796 265.6989  94.3093 14.64138456292668,14.64138456,0.0009796,LEO
44534,ZHUHAI-1 03A,2019,92.43,55.0,+,97.51,Active,1,LEO,PRC,China,Commercial,Earth Observation,Long March,1 44534U 19060A   25083.52301861  .00118932  00000+0  15547-2 0  9997,2 44534  97.5089 224.8754 0006924 108.7157 251.4851 15.58212071307224,15.58212071,0.0006924,LEO
44536,ZHUHAI-1 03B,2019,94.17,55.0,+,97.5,Active,1,LEO,PRC,China,Commercial,Earth Observation,Long March,1 44536U 19060C   25083.53508663  .00038943  00000+0  13642-2 0  9996,2 44536  97.5037 222.9214 0015430 138.8997 221.3408 15.29260808307107,15.29260808,0.001543,LEO
44537,ZHUHAI-1 03C,2019,93.7,55.0,+,97.53,Active,1,LEO,PRC,China,Commercial,Earth Observation,Long March,1 44537U 19060D   25083.63422324  .00052351  00000+0  14342-2 0  9994,2 44537  97.5301 224.4788 0021491 110.8751 249.4797 15.36904876307264,15.36904876,0.0021491,LEO
44538,ZHUHAI-1 03D,2019,94.32,55.0,+,97.49,Active,1,LEO,PRC,China,Commercial,Earth Observation,Long March,1 44538U 19060E   25083.63756460  .00036246  00000+0  13673-2 0  9997,2 44538  97.4865 218.4722 0013831 118.2458 242.0178 15.26863771307028,15.26863771,0.0013831,LEO
44539,ZHUHAI-1 03E,2019,94.48,55.0,+,97.51,Active,1,LEO,PRC,China,Commercial,Earth Observation,Long March,1 44539U 19060F   25083.63719364  .00032485  00000+0  13286-2 0  9991,2 44539  97.5061 220.6087 0013214 167.1211 193.0366 15.24196031306920,15.24196031,0.0013214,LEO
44542,BEIDOU-3 M24,2019,773.24,800.0,+,54.42,Active,1,MEO,PRC,China,Government/Military,Navigation (Global or Regional Positioning),Long March,1 44542U 19061A   25082.20016992  .00000005  00000+0  00000+0 0  9995,2 44542  54.4169 197.9385 0007788   9.9021 350.1021  1.86228963 37392,1.86228963,0.0007788,MEO
44543,BEIDOU-3 M23,2019,773.24,800.0,+,54.42,Active,1,MEO,PRC,China,Government/Military,Navigation (Global or Regional Positioning),Long March,1 44543U 19061B   25083.40452267 -.00000001  00000+0  00000+0 0  9995,2 44543  54.4156 197.8665 0004480   0.1727 359.9717  1.86229221 37422,1.86229221,0.000448,MEO
44547,YUNHAI-1 02,2019,100.47,-1.0,+,98.43,Active,0,LEO,PRC,China,Unknown,Unknown,Unknown,1 44547U 19063A   25083.53032232  .00000826  00000+0  31570-3 0  9995,2 44547  98.4301 101.6179 0007624  72.4897 287.7120 14.33267765287482,14.33267765,0.0007624,LEO
44552,COSMOS 2541,2019,717.73,-1.0,+,62.74,Active,1,MEO,Russia,Russia/USSR,Military,Earth Observation,Soyuz,1 44552U 19065A   25082.63734249 -.00000052  00000+0  00000+0 0  9992,2 44552  62.7352 198.6783 6512298 272.5986  19.9586  2.00631748 40183,2.00631748,0.6512298,MEO
44622,GAOFEN-10R,2019,97.12,1000.0,+,98.0,Active,1,LEO,PRC,China,Government,Earth Observation,Long March,1 44622U 19066A   25083.59907813  .00005354  00000+0  66915-3 0  9996,2 44622  97.9966  30.6752 0006092 128.3575 231.8186 14.82742629295759,14.82742629,0.0006092,LEO
44624,EUTELSAT 5 WEST B,2019,1436.1,2864.0,P,0.07,Active,1,GSO,Kazakhstan,EUTELSAT,Commercial,Communications,Proton,1 44624U 19067A   25083.38655972 -.00000042  00000+0  00000+0 0  9991,2 44624   0.0699 342.6199 0003051  28.1572 305.4754  1.00271843 19929,1.00271843,0.0003051,GEO
44634,PALISADE,2019,109.77,20.0,+,87.9,Active,1,LEO,New Zealand,USA,Commercial,Technology Development,Electron,1 44634U 19069A   25083.52157877 -.00000224  00000+0 -66251-3 0  9998,2 44634  87.9014   9.1647 0008954 183.0841 177.0234 13.11889220260153,13.1188922,0.0008954,LEO
44637,TJS-4,2019,1436.14,-1.0,+,0.07,Active,1,GSO,PRC,China,Government,Technology Development,Long March,1 44637U 19070A   25083.63252812 -.00000171  00000+0  00000+0 0  9996,2 44637   0.0665 295.7848 0002968 111.0040  86.8754  1.00268122 19963,1.00268122,0.0002968,GEO
44703,GAOFEN-7,2019,94.65,9.0,+,97.3,Active,1,LEO,PRC,China,Government,Earth Observation,Long March,1 44703U 19072A   25083.58744557  .00013165  00000+0  58901-3 0  9991,2 44703  97.2983 155.2419 0010382 136.7018 223.5036 15.21365814299282,15.21365814,0.0010382,LEO
44709,BEIDOU-3 IGSO-3,2019,1436.09,4200.0,+,55.57,Active,1,GSO,PRC,China,Government/Military,Navigation (Global or Regional Positioning),Long March,1 44709U 19073A   25081.95804333 -.00000136  00000+0  00000+0 0  9994,2 44709  55.5728 285.7543 0042306 181.5839 178.4249  1.00271741 19932,1.00271741,0.0042306,GSO
44714,STARLINK-1008,2019,95.59,227.0,+,53.06,Active,1,LEO,USA,USA,Commercial,Communications,Falcon,1 44714U 19074B   25083.06156248  .00026290  00000+0  17796-2 0  9991,2 44714  53.0554 320.6478 0001843  93.7751 266.3449 15.06350311295906,15.06350311,0.0001843,LEO
44716,STARLINK-1010,2019,95.59,227.0,+,53.06,Active,1,LEO,USA,USA,Commercial,Communications,Falcon,1 44716U 19074D   25083.06893421  .00024799  00000+0  16799-2 0  9998,2 44716  53.0552 320.6163 0001715  99.6731 260.4452 15.06355385295880,15.06355385,0.0001715,LEO
44717,STARLINK-1011,2019,95.59,227.0,+,53.06,Active,1,LEO,USA,USA,Commercial,Communications,Falcon,1 44717U 19074E   25083.00075161  .00010878  00000+0  74834-3 0  9994,2 44717  53.0563 340.9211 0001532  88.3688 271.7477 15.06384188295611,15.06384188,0.0001532,LEO
44718,STARLINK-1012,2019,95.59,227.0,+,53.06,Active,1,LEO,USA,USA,Commercial,Communications,Falcon,1 44718U 19074F   25083.37118443  .00020876  00000+0  14175-2 0  9996,2 44718  53.0544 319.2574 0001653  80.9714 279.1462 15.06366652295942,15.06366652,0.0001653,LEO
44719,STARLINK-1013,2019,95.59,227.0,+,53.05,Active,1,LEO,USA,USA,Commercial,Communications,Falcon,1 44719U 19074G   25083.37855909  .00029175  00000+0  19700-2 0  9992,2 44719  53.0552 319.2268 0001658  76.1180 283.9994 15.06389105297078,15.06389105,0.0001658,LEO
44720,STARLINK-1014,2019,92.98,227.0,P,53.05,Active,1,LEO,USA,USA,Commercial,Communications,Falcon,1 44720U 19074H   25083.58335648  .00160339  00000+0  28496-2 0  9990,2 44720  53.0477 287.8333 0011321 185.8904 284.6108 15.49071961  5931,15.49071961,0.0011321,LEO
44721,STARLINK-1015,2019,95.59,227.0,+,53.06,Active,1,LEO,USA,USA,Commercial,Communications,Falcon,1 44721U 19074J   25083.35279439  .00020172  00000+0  13706-2 0  9999,2 44721  53.0556 319.6910 0001628 102.6019 257.5152 15.06363295295934,15.06363295,0.0001628,LEO
